$$SOE
2460154.500000000, A.D. 2023-Jul-29 00:00:00.0000, 9.731419966111514E+07, -1.463790858941022E+08, -1.203073423914705E+07,
2460161.500000000, A.D. 2023-Aug-05 00:00:00.0000, 1.128887129856482E+08, -1.344519167689386E+08, -1.590559546227226E+07,
2460168.500000000, A.D. 2023-Aug-12 00:00:00.0000, 1.274645875607554E+08, -1.213349631793127E+08, -1.963968577811090E+07,
2460175.500000000, A.D. 2023-Aug-19 00:00:00.0000, 1.409281475581287E+08, -1.071583735833119E+08, -2.320235190801585E+07,
2460182.500000000, A.D. 2023-Aug-26 00:00:00.0000, 1.531922577485800E+08, -9.206864318033251E+07, -2.656752782301917E+07,
2460189.500000000, A.D. 2023-Sep-02 00:00:00.0000, 1.641981505631675E+08, -7.622141911323527E+07, -2.971450475865122E+07,
2460196.500000000, A.D. 2023-Sep-09 00:00:00.0000, 1.739150543022094E+08, -5.977442350911473E+07, -3.262824232250005E+07,
2460203.500000000, A.D. 2023-Sep-16 00:00:00.0000, 1.823379804522307E+08, -4.288122395471857E+07, -3.529925383139785E+07,
2460210.500000000, A.D. 2023-Sep-23 00:00:00.0000, 1.894842270500046E+08, -2.568632019955499E+07, -3.772315445203557E+07,
2460217.500000000, A.D. 2023-Sep-30 00:00:00.0000, 1.953892032680862E+08, -8.321728220646869E+06, -3.989998670043191E+07,
2460224.500000000, A.D. 2023-Oct-07 00:00:00.0000, 2.001021080262254E+08, 9.094995433703683E+06, -4.183343668235118E+07,
2460231.500000000, A.D. 2023-Oct-14 00:00:00.0000, 2.036818621967115E+08, 2.646150013280892E+07, -4.353003549950738E+07,
2460238.500000000, A.D. 2023-Oct-21 00:00:00.0000, 2.061935440560777E+08, 4.369044598529515E+07, -4.499841260093602E+07,
2460245.500000000, A.D. 2023-Oct-28 00:00:00.0000, 2.077054396895156E+08, 6.070866018741322E+07, -4.624864014705475E+07,
2460252.500000000, A.D. 2023-Nov-04 00:00:00.0000, 2.082867214673439E+08, 7.745589935572708E+07, -4.729168536102363E+07,
2460259.500000000, A.D. 2023-Nov-11 00:00:00.0000, 2.080057066509524E+08, 9.388341878331582E+07, -4.813897209622384E+07,
2460266.500000000, A.D. 2023-Nov-18 00:00:00.0000, 2.069286159989937E+08, 1.099524942581137E+08, -4.880204307624698E+07,
2460273.500000000, A.D. 2023-Nov-25 00:00:00.0000, 2.051187414958729E+08, 1.256329930173801E+08, -4.929230934636130E+07,
2460280.500000000, A.D. 2023-Dec-02 00:00:00.0000, 2.026359351497546E+08, 1.409020514387783E+08, -4.962087192234464E+07,
2460287.500000000, A.D. 2023-Dec-09 00:00:00.0000, 1.995363408513268E+08, 1.557428885371979E+08, -4.979840112688251E+07,
2460294.500000000, A.D. 2023-Dec-16 00:00:00.0000, 1.958723042878464E+08, 1.701437649836199E+08, -4.983506069039302E+07,
2460301.500000000, A.D. 2023-Dec-23 00:00:00.0000, 1.916924089360365E+08, 1.840970857059648E+08, -4.974046564255127E+07,
2460308.500000000, A.D. 2023-Dec-30 00:00:00.0000, 1.870415962071336E+08, 1.975986373428069E+08, -4.952366486227338E+07,
2460315.500000000, A.D. 2024-Jan-06 00:00:00.0000, 1.819613373572470E+08, 2.106469448710697E+08, -4.919314125931745E+07,
2460322.500000000, A.D. 2024-Jan-13 00:00:00.0000, 1.764898378516432E+08, 2.232427310381153E+08, -4.875682458581146E+07,
2460329.500000000, A.D. 2024-Jan-20 00:00:00.0000, 1.706622592583961E+08, 2.353884672551452E+08, -4.822211260814760E+07,
2460336.500000000, A.D. 2024-Jan-27 00:00:00.0000, 1.645109453375817E+08, 2.470880031476534E+08, -4.759589732215676E+07,
2460343.500000000, A.D. 2024-Feb-03 00:00:00.0000, 1.580656442409255E+08, 2.583462617199155E+08, -4.688459400238328E+07,
2460350.500000000, A.D. 2024-Feb-10 00:00:00.0000, 1.513537221243354E+08, 2.691689892333065E+08, -4.609417152330059E+07,
2460357.500000000, A.D. 2024-Feb-17 00:00:00.0000, 1.444003652730491E+08, 2.795625506626263E+08, -4.523018283356287E+07,
2460364.500000000, A.D. 2024-Feb-24 00:00:00.0000, 1.372287691104698E+08, 2.895337629652238E+08, -4.429779481323576E+07,
2460371.500000000, A.D. 2024-Mar-02 00:00:00.0000, 1.298603134112686E+08, 2.990897595731242E+08, -4.330181701199429E+07,
2460378.500000000, A.D. 2024-Mar-09 00:00:00.0000, 1.223147237977906E+08, 3.082378805575662E+08, -4.224672897181056E+07,
2460385.500000000, A.D. 2024-Mar-16 00:00:00.0000, 1.146102202822761E+08, 3.169855840957258E+08, -4.113670597903001E+07,
2460392.500000000, A.D. 2024-Mar-23 00:00:00.0000, 1.067636533887347E+08, 3.253403765612090E+08, -3.997564306931511E+07,
2460399.500000000, A.D. 2024-Mar-30 00:00:00.0000, 9.879062640534884E+07, 3.333097580708386E+08, -3.876717707190353E+07,
2460406.500000000, A.D. 2024-Apr-06 00:00:00.0000, 9.070560488187012E+07, 3.409011775275017E+08, -3.751470702582078E+07,
2460413.500000000, A.D. 2024-Apr-13 00:00:00.0000, 8.252201781111439E+07, 3.481219958738308E+08, -3.622141329377325E+07,
2460420.500000000, A.D. 2024-Apr-20 00:00:00.0000, 7.425235042631885E+07, 3.549794584803821E+08, -3.489027515399611E+07,
2460427.500000000, A.D. 2024-Apr-27 00:00:00.0000, 6.590822794070130E+07, 3.614806746586643E+08, -3.352408687067279E+07,
2460434.500000000, A.D. 2024-May-04 00:00:00.0000, 5.750049111114823E+07, 3.676326024076332E+08, -3.212547240707932E+07,
2460441.500000000, A.D. 2024-May-11 00:00:00.0000, 4.903926460457879E+07, 3.734420373169737E+08, -3.069689891100714E+07,
2460448.500000000, A.D. 2024-May-18 00:00:00.0000, 4.053401893194503E+07, 3.789156048480859E+08, -2.924068907524344E+07,
2460455.500000000, A.D. 2024-May-25 00:00:00.0000, 3.199362660017877E+07, 3.840597553279327E+08, -2.775903246881431E+07,
2460462.500000000, A.D. 2024-Jun-01 00:00:00.0000, 2.342641311209097E+07, 3.888807610575776E+08, -2.625399593672806E+07,
2460469.500000000, A.D. 2024-Jun-08 00:00:00.0000, 1.484020357790631E+07, 3.933847150669575E+08, -2.472753317427146E+07,
2460476.500000000, A.D. 2024-Jun-15 00:00:00.0000, 6.242365804879600E+06, 3.975775316936255E+08, -2.318149354338631E+07,
2460483.500000000, A.D. 2024-Jun-22 00:00:00.0000, -2.360150719981707E+06, 4.014649498583786E+08, -2.161763001252101E+07,
2460490.500000000, A.D. 2024-Jun-29 00:00:00.0000, -1.096078169879876E+07, 4.050525369654631E+08, -2.003760623766856E+07,
2460497.500000000, A.D. 2024-Jul-06 00:00:00.0000, -1.955331776606325E+07, 4.083456907512310E+08, -1.844300328702278E+07,
2460504.500000000, A.D. 2024-Jul-13 00:00:00.0000, -2.813187485773505E+07, 4.113496417496879E+08, -1.683532601206356E+07,
2460511.500000000, A.D. 2024-Jul-20 00:00:00.0000, -3.669086691560751E+07, 4.140694573969778E+08, -1.521600883933002E+07,
2460518.500000000, A.D. 2024-Jul-27 00:00:00.0000, -4.522498133429258E+07, 4.165100467069604E+08, -1.358642104586130E+07,
2460525.500000000, A.D. 2024-Aug-03 00:00:00.0000, -5.372915665599397E+07, 4.186761650534226E+08, -1.194787161438277E+07,
2460532.500000000, A.D. 2024-Aug-10 00:00:00.0000, -6.219856214885397E+07, 4.205724189816075E+08, -1.030161372053754E+07,
2460539.500000000, A.D. 2024-Aug-17 00:00:00.0000, -7.062857904393499E+07, 4.222032710119709E+08, -8.648848888147265E+06,
2460546.500000000, A.D. 2024-Aug-24 00:00:00.0000, -7.901478324380320E+07, 4.235730443669769E+08, -6.990730847306341E+06,
2460553.500000000, A.D. 2024-Aug-31 00:00:00.0000, -8.735292924415247E+07, 4.246859275223612E+08, -5.328369138640821E+06,
2460560.500000000, A.D. 2024-Sep-07 00:00:00.0000, -9.563893477461120E+07, 4.255459786803364E+08, -3.662832512145907E+06,
2460567.500000000, A.D. 2024-Sep-14 00:00:00.0000, -1.038688659582609E+08, 4.261571311392103E+08, -1.995152070037007E+06,
2460574.500000000, A.D. 2024-Sep-21 00:00:00.0000, -1.120389249137602E+08, 4.265231999570698E+08, -3.263239548855424E+05,
2460581.500000000, A.D. 2024-Sep-28 00:00:00.0000, -1.201454401909366E+08, 4.266478866679385E+08, 1.342688178995699E+06,
2460588.500000000, A.D. 2024-Oct-05 00:00:00.0000, -1.281848562860448E+08, 4.265347820400086E+08, 3.010950557573408E+06,
2460595.500000000, A.D. 2024-Oct-12 00:00:00.0000, -1.361537225224948E+08, 4.261873698527305E+08, 4.677556803287625E+06,
2460602.500000000, A.D. 2024-Oct-19 00:00:00.0000, -1.440486829771424E+08, 4.256090314206614E+08, 6.341625699380785E+06,
2460609.500000000, A.D. 2024-Oct-26 00:00:00.0000, -1.518664674202389E+08, 4.248030500608138E+08, 8.002299126853287E+06,
2460616.500000000, A.D. 2024-Nov-02 00:00:00.0000, -1.596038829540662E+08, 4.237726153550785E+08, 9.658740126477897E+06,
2460623.500000000, A.D. 2024-Nov-09 00:00:00.0000, -1.672578062013196E+08, 4.225208272302991E+08, 1.131013106783599E+07,
2460630.500000000, A.D. 2024-Nov-16 00:00:00.0000, -1.748251759695566E+08, 4.210506998594291E+08, 1.295567191306049E+07,
2460637.500000000, A.D. 2024-Nov-23 00:00:00.0000, -1.823029863011110E+08, 4.193651653379622E+08, 1.459457855776551E+07,
2460644.500000000, A.D. 2024-Nov-30 00:00:00.0000, -1.896882796602603E+08, 4.174670770977379E+08, 1.622608121818411E+07,
2460651.500000000, A.D. 2024-Dec-07 00:00:00.0000, -1.969781398019071E+08, 4.153592134841596E+08, 1.784942285272098E+07,
2460658.500000000, A.D. 2024-Dec-14 00:00:00.0000, -2.041696849775888E+08, 4.130442827276117E+08, 1.946385777401391E+07,
2460665.500000000, A.D. 2024-Dec-21 00:00:00.0000, -2.112600637661085E+08, 4.105249280765574E+08, 2.106865055618513E+07,
2460672.500000000, A.D. 2024-Dec-28 00:00:00.0000, -2.182464515254269E+08, 4.078037301305361E+08, 2.266307480782759E+07,
2460679.500000000, A.D. 2025-Jan-04 00:00:00.0000, -2.251260448425877E+08, 4.048832087539654E+08, 2.424641176119351E+07,
2460686.500000000, A.D. 2025-Jan-11 00:00:00.0000, -2.318960557798211E+08, 4.017658262396526E+08, 2.581794897506270E+07,
2460693.500000000, A.D. 2025-Jan-18 00:00:00.0000, -2.385537068097963E+08, 3.984539908121078E+08, 2.737697915535247E+07,
2460700.500000000, A.D. 2025-Jan-25 00:00:00.0000, -2.450962261738324E+08, 3.949500600033448E+08, 2.892279902767980E+07,
2460707.500000000, A.D. 2025-Feb-01 00:00:00.0000, -2.515208434528140E+08, 3.912563438783697E+08, 3.045470823757654E+07,
2460714.500000000, A.D. 2025-Feb-08 00:00:00.0000, -2.578247852729425E+08, 3.873751081378809E+08, 3.197200827032244E+07,
2460721.500000000, A.D. 2025-Feb-15 00:00:00.0000, -2.640052710988655E+08, 3.833085770862177E+08, 3.347400138196331E+07,
$$EOE